[{"OBJECT_NAME":"PLEIADES NEO 4","OBJECT_ID":"2021-073E","EPOCH":"2026-03-09T22:43:10.158240","MEAN_MOTION":14.81670727,"ECCENTRICITY":0.00013011,"INCLINATION":97.8928,"RA_OF_ASC_NODE":145.1333,"ARG_OF_PERICENTER":92.4306,"MEAN_ANOMALY":267.7056,"EPHEMERIS_TYPE":0,"CLASSIFICATION_TYPE":"U","NORAD_CAT_ID":49070,"ELEMENT_SET_NO":999,"REV_AT_EPOCH":24667,"BSTAR":-4.8245874e-5,"MEAN_MOTION_DOT":-4.32e-6,"MEAN_MOTION_DDOT":0},{"OBJECT_NAME":"SL-14 R\/B","OBJECT_ID":"1985-113B","EPOCH":"2026-03-09T21:32:10.720320","MEAN_MOTION":14.85814866,"ECCENTRICITY":0.00165952,"INCLINATION":82.5369,"RA_OF_ASC_NODE":349.468,"ARG_OF_PERICENTER":266.4967,"MEAN_ANOMALY":162.3291,"EPHEMERIS_TYPE":0,"CLASSIFICATION_TYPE":"U","NORAD_CAT_ID":16327,"ELEMENT_SET_NO":999,"REV_AT_EPOCH":15349,"BSTAR":7.2989472e-5,"MEAN_MOTION_DOT":6.6e-6,"MEAN_MOTION_DDOT":0}]
